[{"OBJECT_NAME":"OBJECT AL","OBJECT_ID":"2023-085AL","EPOCH":"2026-03-09T22:26:04.970400","MEAN_MOTION":15.31857284,"ECCENTRICITY":0.000802,"INCLINATION":97.4839,"RA_OF_ASC_NODE":180.0127,"ARG_OF_PERICENTER":78.7242,"MEAN_ANOMALY":281.49,"EPHEMERIS_TYPE":0,"CLASSIFICATION_TYPE":"U","NORAD_CAT_ID":57038,"ELEMENT_SET_NO":999,"REV_AT_EPOCH":15154,"BSTAR":0.0006591637,"MEAN_MOTION_DOT":0.00020246,"MEAN_MOTION_DDOT":0},{"OBJECT_NAME":"STARLINK-35826","OBJECT_ID":"2025-254AD","EPOCH":"2026-03-09T16:12:26.707104","MEAN_MOTION":15.30208755,"ECCENTRICITY":0.00012663,"INCLINATION":53.1567,"RA_OF_ASC_NODE":229.6175,"ARG_OF_PERICENTER":46.2472,"MEAN_ANOMALY":313.8633,"EPHEMERIS_TYPE":0,"CLASSIFICATION_TYPE":"U","NORAD_CAT_ID":66375,"ELEMENT_SET_NO":999,"REV_AT_EPOCH":1901,"BSTAR":0.00043874153,"MEAN_MOTION_DOT":0.00012661,"MEAN_MOTION_DDOT":0}]
